NEUTRON-1               
1 46923U 98067RT  21058.45315046  .00008838  00000-0  15113-3 0  9999
2 46923  51.6425 163.7874 0002243  44.8602 315.2569 15.52095764 17799
1998-067RU              
1 46924U 98067RU  21058.69627782  .00021075  00000-0  32225-3 0  9990
2 46924  51.6418 161.6620 0001623  59.7304 300.3848 15.54341373 17790
LEMUR-2-BAXTER-OLIVER   
1 46925U 98067RV  21058.55275362  .00029619  00000-0  44368-3 0  9992
2 46925  51.6429 162.2124 0002112  69.1086 291.0130 15.54699011 17756
LEMUR-2-DJARA           
1 46926U 98067RW  21058.30574143  .00025349  00000-0  38480-3 0  9999
2 46926  51.6435 163.5615 0001803  51.7594 308.3559 15.54422345 17739
DESCENT                 
1 46927U 98067RX  21058.45637590  .00008482  00000-0  14548-3 0  9990
2 46927  51.6428 163.8081 0002371  65.5240 294.5997 15.52072937 17709
PROGRESS-MS 16          
1 47618U 21011A   21058.60437575  .00001982  00000-0  44099-4 0  9994
2 47618  51.6459 164.7296 0003088  56.0030 329.1758 15.49016549271612
CYGNUS NG-15            
1 47689U 21013A   21058.60437575  .00001982  00000-0  44099-4 0  9994
2 47689  51.6459 164.7296 0003088  56.0030 329.1758 15.49016549271610
