OBJECT_NAME,OBJECT_ID,EPOCH,MEAN_MOTION,ECCENTRICITY,INCLINATION,RA_OF_ASC_NODE,ARG_OF_PERICENTER,MEAN_ANOMALY,EPHEMERIS_TYPE,CLASSIFICATION_TYPE,NORAD_CAT_ID,ELEMENT_SET_NO,REV_AT_EPOCH,BSTAR,MEAN_MOTION_DOT,MEAN_MOTION_DDOT
NEUTRON-1,1998-067RT,2021-02-27T10:52:32.199744,15.52095764,.0002243,51.6425,163.7874,44.8602,315.2569,0,U,46923,999,1779,.15113E-3,.8838E-4,0
1998-067RU,1998-067RU,2021-02-27T16:42:38.403648,15.54341373,.0001623,51.6418,161.6620,59.7304,300.3848,0,U,46924,999,1779,.32225E-3,.21075E-3,0
LEMUR-2-BAXTER-OLIVER,1998-067RV,2021-02-27T13:15:57.912768,15.54699011,.0002112,51.6429,162.2124,69.1086,291.0130,0,U,46925,999,1775,.44368E-3,.29619E-3,0
LEMUR-2-DJARA,1998-067RW,2021-02-27T07:20:16.059552,15.54422345,.0001803,51.6435,163.5615,51.7594,308.3559,0,U,46926,999,1773,.3848E-3,.25349E-3,0
DESCENT,1998-067RX,2021-02-27T10:57:10.877760,15.52072937,.0002371,51.6428,163.8081,65.5240,294.5997,0,U,46927,999,1770,.14548E-3,.8482E-4,0
PROGRESS-MS 16,2021-011A,2021-02-27T14:30:18.064800,15.49016549,.0003088,51.6459,164.7296,56.0030,329.1758,0,U,47618,999,27161,.44099E-4,.1982E-4,0
CYGNUS NG-15,2021-013A,2021-02-27T14:30:18.064800,15.49016549,.0003088,51.6459,164.7296,56.0030,329.1758,0,U,47689,999,27161,.44099E-4,.1982E-4,0
